KUIPER-00016            
1 63732U 25088J   25364.55953845 -.00002193  00000+0 -25826-3 0  9990
2 63732  51.8997  57.2890 0012453 191.7188 168.3486 14.79882830 37098
KUIPER-00018            
1 63733U 25088K   25364.50423336  .00009156  00000+0  12262-2 0  9996
2 63733  51.9042  46.4895 0012633 219.7462 140.2576 14.79965084 37241
KUIPER-00019            
1 63734U 25088L   25364.50541957  .00005570  00000+0  75821-3 0  9994
2 63734  51.9010  45.0291 0008500 229.4569 130.5653 14.79969529 37264
KUIPER-00020            
1 63735U 25088M   25364.50173683 -.00001247  00000+0 -13441-3 0  9991
2 63735  51.9044  49.0297 0008054 212.2879 147.7591 14.79872491 37419
KUIPER-00021            
1 63736U 25088N   25364.56757081 -.00001014  00000+0 -10394-3 0  9994
2 63736  51.9018  49.7362 0006288 206.5700 153.4941 14.79889411 37241
KUIPER-00023            
1 63737U 25088P   25364.56668248  .00021131  00000+0  27881-2 0  9999
2 63737  51.9003  51.2079 0010655 225.9764 134.0321 14.79959400 37521
KUIPER-00024            
1 63738U 25088Q   25364.64753160  .00015037  00000+0  19967-2 0  9991
2 63738  51.9066  38.3967 0001353 153.0056 207.0977 14.79939793 37838
KUIPER-00025            
1 63739U 25088R   25364.57007238  .00005387  00000+0  73313-3 0  9995
2 63739  51.9030  47.2513 0001048  29.3445 330.7577 14.80048492 37563
